GLOBALSTAR M070         
1 32264U 07048B   23271.14763847 -.00000093  00000+0  61362-4 0  9995
2 32264  51.9734 241.6989 0000525 110.1293 332.2328 12.62278792735336
GLOBALSTAR M066         
1 32265U 07048C   23270.87255574 -.00000070  00000+0  18633-3 0  9995
2 32265  51.9659 104.6088 0001117  47.2429  57.9062 12.62265109737527
GLOBALSTAR M079         
1 37188U 10054A   23270.20785013 -.00000096  00000+0  45293-4 0  9999
2 37188  52.0022 254.5016 0000465  50.8131 322.1152 12.62268053597705
GLOBALSTAR M074         
1 37189U 10054B   23270.42612740 -.00000103  00000+0  18539-5 0  9993
2 37189  52.0001 253.2568 0000433  76.9838  88.5294 12.62270095597652
GLOBALSTAR M076         
1 37190U 10054C   23270.69108257 -.00000109  00000+0 -29155-4 0  9999
2 37190  52.0015 252.5635 0001001  63.1022 107.4117 12.62261399597765
GLOBALSTAR M077         
1 37191U 10054D   23270.28099053 -.00000108  00000+0 -24713-4 0  9992
2 37191  52.0061 210.4881 0000569  73.3351  91.3207 12.62263972597725
GLOBALSTAR M067 [+]     
1 32263U 07048A   23270.86962769 -.00000087  00000+0  80147-4 0  9991
2 32263  51.9723  74.3699 0001697  85.7612  62.2175 12.40632003731741
GLOBALSTAR M068 [-]     
1 32266U 07048D   23270.45063810 -.00000080  00000+0  13148-3 0  9997
2 32266  51.9892  58.7568 0001094 143.7139 251.1346 12.62766800738127
